ONEWEB-0201             
1 48241U 21031AH  21200.66667824 -.01084408  00000-0 -76753+0 0  9990
2 48241  87.7425 286.9977 0009921 328.7928  41.0818 14.01357337  3494
ONEWEB-0207             
1 48242U 21031AJ  21200.66667824 -.01107497  00000-0 -90258+0 0  9991
2 48242  87.7058 286.9555 0008261 355.5861 105.5922 13.93422611  3501
ONEWEB-0208             
1 48243U 21031AK  21200.66667824 -.01105952  00000-0 -84267+0 0  9999
2 48243  87.7355 286.9244 0006403 352.1933 200.6489 13.97272392  3481
ONEWEB-0200             
1 48244U 21031AL  21200.66667824 -.00943258  00000-0 -79462+0 0  9999
2 48244  87.6806 286.8554 0010329 344.1587 137.0632 13.90961844  3475
ONEWEB-0217             
1 48245U 21031AM  21200.66667824 -.00794154  00000-0 -75465+0 0  9998
2 48245  87.6707 286.8076 0007438   6.8421 249.3450 13.83918394  3458
ONEWEB-0211             
1 48767U 21045A   21200.66667824 -.01131332  00000-0 -16493+0 0  9992
2 48767  87.5556 258.9056 0009761  89.6880 344.8691 14.78981513  3596
ONEWEB-0223             
1 48768U 21045B   21200.66667824 -.01140278  00000-0 -17369+0 0  9995
2 48768  87.5368 258.8892 0013555  70.4857 128.9962 14.77106341  9206
ONEWEB-0230             
1 48769U 21045C   21200.66667824 -.00797726  00000-0 -69454-1 0  9995
2 48769  87.6319 258.7597 0009505  78.9119 243.9664 14.99606709  3601
ONEWEB-0237             
1 48770U 21045D   21200.66667824 -.01129363  00000-0 -19780+0 0  9999
2 48770  87.4971 258.9281 0014050  82.3762  78.2990 14.71074905  3609
ONEWEB-0235             
1 48771U 21045E   21200.66667824 -.01121247  00000-0 -19677+0 0  9998
2 48771  87.5259 258.9536 0008521  90.2451 277.7070 14.71029679  3582
ONEWEB-0242             
1 48772U 21045F   21200.66667824 -.01122391  00000-0 -15685+0 0  9995
2 48772  87.5549 258.8683 0013247  89.5965 210.2033 14.80687431  3597
ONEWEB-0241             
1 48773U 21045G   21200.66667824 -.01136107  00000-0 -19888+0 0  9995
2 48773  87.4966 258.9020 0010083  77.4342  92.1870 14.71164719  3580
ONEWEB-0243             
1 48774U 21045H   21200.66667824 -.01140670  00000-0 -21336+0 0  9997
2 48774  87.4913 258.9597 0013740  85.1338 357.3745 14.68235065  3605
ONEWEB-0222             
1 48775U 21045J   21200.66667824 -.01149743  00000-0 -19133+0 0  9990
2 48775  87.5134 258.8965 0013286  84.1147 160.5740 14.73355900  9187
ONEWEB-0244             
1 48776U 21045K   21200.66667824 -.01118371  00000-0 -13636+0 0  9996
2 48776  87.5816 258.8740 0008697  84.0950 350.4665 14.86355984  3598
ONEWEB-0247             
1 48777U 21045L   21200.66667824 -.01161164  00000-0 -20434+0 0  9999
2 48777  87.4942 258.9019 0009748  77.1741  97.1325 14.71010743  3556
ONEWEB-0245             
1 48778U 21045M   21200.66667824 -.01109517  00000-0 -18025+0 0  9997
2 48778  87.5025 258.9255 0013766  80.5435 221.6492 14.74270865  3572
ONEWEB-0229             
1 48779U 21045N   21200.66667824 -.01149905  00000-0 -20395+0 0  9996
2 48779  87.4989 258.9282 0009679  89.1867  88.7496 14.70638191  3575
ONEWEB-0228             
1 48780U 21045P   21200.66667824 -.01137544  00000-0 -21225+0 0  9997
2 48780  87.4901 258.9419 0012059  74.4548 129.1832 14.68356084  3605
ONEWEB-0232             
1 48781U 21045Q   21200.66667824 -.00767851  00000-0 -57397-1 0  9998
2 48781  87.6327 258.6738 0012348  89.6146  62.3120 15.05648532  3594
ONEWEB-0231             
1 48782U 21045R   21200.66667824 -.01158755  00000-0 -19804+0 0  9996
2 48782  87.5047 258.8958 0010752  90.2478 274.3882 14.72261473  3589
ONEWEB-0234             
1 48783U 21045S   21200.66667824 -.01106516  00000-0 -16472+0 0  9993
2 48783  87.5087 258.9122 0011075  71.9826 208.0863 14.78017724  3587
ONEWEB-0238             
1 48784U 21045T   21200.66667824 -.01132008  00000-0 -18603+0 0  9997
2 48784  87.5170 258.9080 0012596  86.4842 100.2356 14.73855137  9187
ONEWEB-0240             
1 48785U 21045U   21200.66667824 -.01116281  00000-0 -15677+0 0  9991
2 48785  87.5626 258.9214 0009662  83.9064 264.5262 14.80508083  3593
ONEWEB-0246             
1 48786U 21045V   21200.66667824 -.01125019  00000-0 -23235+0 0  9990
2 48786  87.4567 258.9600 0009560  97.6675 172.8068 14.63839701  3571
ONEWEB-0210             
1 48787U 21045W   21200.66667824 -.01144320  00000-0 -21428+0 0  9999
2 48787  87.4852 258.9386 0012454  70.2692  87.6121 14.68213386  3597
ONEWEB-0214             
1 48788U 21045X   21200.66667824 -.01138264  00000-0 -24105+0 0  9995
2 48788  87.4539 258.9717 0009000  86.0364  45.1081 14.62760242  9134
ONEWEB-0221             
1 48789U 21045Y   21200.66667824 -.01143807  00000-0 -17107+0 0  9999
2 48789  87.5402 258.8937 0013149  66.6159 183.4205 14.77895509  3592
ONEWEB-0213             
1 48790U 21045Z   21200.66667824 -.01134851  00000-0 -17765+0 0  9990
2 48790  87.5326 258.8931 0013784  75.7955 339.1185 14.75927436  3582
ONEWEB-0212             
1 48791U 21045AA  21200.66667824 -.01152115  00000-0 -17828+0 0  9994
2 48791  87.5325 258.9007 0013876  73.9669  64.7760 14.76465512  3584
ONEWEB-0227             
1 48792U 21045AB  21200.66667824 -.01154843  00000-0 -20813+0 0  9993
2 48792  87.5020 259.0059 0010719  73.3490 315.4378 14.69942615  3582
ONEWEB-0226             
1 48793U 21045AC  21200.66667824 -.01151275  00000-0 -21157+0 0  9992
2 48793  87.4795 258.9179 0012894  92.9040 346.3377 14.69053124  3586
ONEWEB-0224             
1 48794U 21045AD  21200.66667824 -.01153610  00000-0 -25870+0 0  9994
2 48794  87.4254 258.9461 0010656  81.2283  95.9566 14.59674093  3563
ONEWEB-0233             
1 48795U 21045AE  21200.66667824 -.01138100  00000-0 -24998+0 0  9992
2 48795  87.4273 258.9577 0008932  89.0240 232.0334 14.61112246  3541
ONEWEB-0190             
1 48796U 21045AF  21200.66667824 -.00000101  00000-0 -20441-4 0  9995
2 48796  87.4834 258.9425 0012505  94.4633 337.0005 14.70853527  3583
ONEWEB-0236             
1 48797U 21045AG  21200.66667824 -.01139669  00000-0 -24140+0 0  9994
2 48797  87.4421 258.9276 0009389  91.9463  60.2965 14.62750777  3561
ONEWEB-0248             
1 48798U 21045AH  21200.66667824 -.01125318  00000-0 -15727+0 0  9992
2 48798  87.5559 258.8763 0012028  88.5352 156.7644 14.80708269  3584
ONEWEB-0225             
1 48799U 21045AJ  21200.66667824 -.01108563  00000-0 -14834+0 0  9994
2 48799  87.5516 258.8665 0009688  91.0311 139.7345 14.82498636  3564
ONEWEB-0215             
1 48800U 21045AK  21200.66667824 -.01143117  00000-0 -23479+0 0  9996
2 48800  87.4513 258.9389 0011089  95.2552 255.0990 14.64123827  3574
ONEWEB-0216             
1 48801U 21045AL  21200.66667824 -.01180495  00000-0 -24136+0 0  9998
2 48801  87.4561 259.0245 0010092  95.9810 234.5656 14.63924578  3570
ONEWEB-0239             
1 48802U 21045AM  21200.66667824 -.01121832  00000-0 -20357+0 0  9990
2 48802  87.5408 258.9869 0014167  87.8142  39.1236 14.69505512  3579
ONEWEB-0249             
1 48967U 21060A   21200.66667824 -.01466304  00000-0 -54117-1 0  9998
2 48967  87.4166 230.9849 0005517 196.9104 208.9614 15.31077118  3637
ONEWEB-0250             
1 48968U 21060B   21200.66667824 -.01478513  00000-0 -57563-1 0  9992
2 48968  87.4131 230.9927 0007490 177.8168 174.9567 15.29358504  3667
ONEWEB-0251             
1 48969U 21060C   21200.66667824 -.00046295  00000-0 -12126-2 0  9997
2 48969  87.3966 230.9854 0008636 205.9855 138.3880 15.38908831  3656
ONEWEB-0252             
1 48970U 21060D   21200.66667824 -.01471998  00000-0 -52019-1 0  9996
2 48970  87.4130 230.9818 0008849 198.3842 266.3623 15.32429427  3648
ONEWEB-0253             
1 48971U 21060E   21200.66667824 -.01509214  00000-0 -68630-1 0  9996
2 48971  87.4054 231.0253 0007269 180.0882 321.7546 15.23793624  3638
ONEWEB-0254             
1 48972U 21060F   21200.66667824 -.01471145  00000-0 -61513-1 0  9991
2 48972  87.4097 231.0068 0009185 202.9122  58.4209 15.26990461  3653
ONEWEB-0255             
1 48973U 21060G   21200.66667824 -.01482484  00000-0 -55532-1 0  9994
2 48973  87.4141 230.9882 0005163 193.0846 202.0561 15.30641797  3637
ONEWEB-0256             
1 48974U 21060H   21200.66667824 -.01481285  00000-0 -60770-1 0  9993
2 48974  87.4114 231.0057 0009847 195.4284  88.9225 15.27626783  3642
ONEWEB-0257             
1 48975U 21060J   21200.66667824 -.01462951  00000-0 -57560-1 0  9996
2 48975  87.4172 230.9958 0008989 179.3864 154.0366 15.28960203  3635
ONEWEB-0258             
1 48976U 21060K   21201.00002315  .00068084  00000-0  26910-2 0  9996
2 48976  87.4045 230.9108 0006467 185.3080   6.4237 15.25196927  4110
ONEWEB-0259             
1 48977U 21060L   21200.66667824 -.01475255  00000-0 -51201-1 0  9995
2 48977  87.4136 230.9759 0010118 194.7733 289.5537 15.32988756  3642
ONEWEB-0260             
1 48978U 21060M   21200.66667824 -.01491857  00000-0 -66765-1 0  9993
2 48978  87.4040 231.0157 0006924 182.7534 331.6985 15.24298044  3637
ONEWEB-0261             
1 48979U 21060N   21200.66667824 -.01473009  00000-0 -51434-1 0  9990
2 48979  87.4116 230.9703 0009398 195.4905 280.0728 15.32803560  3634
ONEWEB-0262             
1 48980U 21060P   21200.66667824 -.01462717  00000-0 -53015-1 0  9993
2 48980  87.4177 230.9832 0006500 200.9921 224.3975 15.31636618  3630
ONEWEB-0263             
1 48981U 21060Q   21200.66667824 -.01481336  00000-0 -58164-1 0  9992
2 48981  87.4145 230.9968 0008230 178.4595 163.8249 15.29079793  3660
ONEWEB-0264             
1 48982U 21060R   21200.66667824 -.01487462  00000-0 -64010-1 0  9996
2 48982  87.4090 231.0085 0007749 208.3958  21.1183 15.26102557  3634
ONEWEB-0265             
1 48983U 21060S   21200.66667824 -.00056618  00000-0 -14021-2 0  9999
2 48983  87.3973 230.9726 0005635 185.2321 272.4247 15.40679812  3645
ONEWEB-0266             
1 48984U 21060T   21200.66667824 -.01471016  00000-0 -59984-1 0  9990
2 48984  87.4091 230.9955 0009346 194.8103  93.7549 15.27809180  3635
